{"type": "FeatureCollection", "features": [ {"type": "Feature", "properties": {"norad_id": 66489, "name": "STARLINK-35696", "group": "last-30-days", "lat": -33.14322535524405, "lon": 126.72936018020681, "alt_km": 374.25156190517464, "timestamp": "2025-12-04T21:36:14.652157+00:00", "meta": {"OBJECT_NAME": "STARLINK-35696", "OBJECT_ID": "2025-263E", "EPOCH": "2025-12-04T14:00:01.000224", "MEAN_MOTION": 15.66777538, "ECCENTRICITY": 0.00016192, "INCLINATION": 42.9988, "RA_OF_ASC_NODE": 173.1144, "ARG_OF_PERICENTER": 257.9116, "MEAN_ANOMALY": 60.43, "EPHEMERIS_TYPE": 0, "CLASSIFICATION_TYPE": "U", "NORAD_CAT_ID": 66489, "ELEMENT_SET_NO": 999, "REV_AT_EPOCH": 432, "BSTAR": -0.021094209, "MEAN_MOTION_DOT": -0.02013279, "MEAN_MOTION_DDOT": 0}, "tle": {"line1": "1 66489U 25263E   25338.58334491 -.02013279  00000+0 -21094-1 0  9991", "line2": "2 66489  42.9988 173.1144 0001619 257.9116  60.4300 15.66777538  4321"}}, "geometry": {"type": "Point", "coordinates": [126.72936018020681, -33.14322535524405]}}, {"type": "Feature", "properties": {"norad_id": 66490, "name": "STARLINK-35693", "group": "last-30-days", "lat": -32.195807598964464, "lon": 128.7031577342319, "alt_km": 374.1963370886788, "timestamp": "2025-12-04T21:36:14.652167+00:00", "meta": {"OBJECT_NAME": "STARLINK-35693", "OBJECT_ID": "2025-263F", "EPOCH": "2025-12-04T14:00:01.000224", "MEAN_MOTION": 15.66778821, "ECCENTRICITY": 0.00016706, "INCLINATION": 42.999, "RA_OF_ASC_NODE": 173.1096, "ARG_OF_PERICENTER": 258.5752, "MEAN_ANOMALY": 61.6842, "EPHEMERIS_TYPE": 0, "CLASSIFICATION_TYPE": "U", "NORAD_CAT_ID": 66490, "ELEMENT_SET_NO": 999, "REV_AT_EPOCH": 432, "BSTAR": -0.021133203, "MEAN_MOTION_DOT": -0.0201668, "MEAN_MOTION_DDOT": 0}, "tle": {"line1": "1 66490U 25263F   25338.58334491 -.02016680  00000+0 -21133-1 0  9996", "line2": "2 66490  42.9990 173.1096 0001670 258.5752  61.6842 15.66778821  4322"}}, "geometry": {"type": "Point", "coordinates": [128.7031577342319, -32.195807598964464]}}, {"type": "Feature", "properties": {"norad_id": 66491, "name": "STARLINK-35663", "group": "last-30-days", "lat": -30.213541246252326, "lon": 132.52451437921297, "alt_km": 374.1263857242848, "timestamp": "2025-12-04T21:36:14.652177+00:00", "meta": {"OBJECT_NAME": "STARLINK-35663", "OBJECT_ID": "2025-263G", "EPOCH": "2025-12-04T14:00:01.000224", "MEAN_MOTION": 15.66777295, "ECCENTRICITY": 0.00016731, "INCLINATION": 42.9991, "RA_OF_ASC_NODE": 173.0998, "ARG_OF_PERICENTER": 259.1964, "MEAN_ANOMALY": 64.8961, "EPHEMERIS_TYPE": 0, "CLASSIFICATION_TYPE": "U", "NORAD_CAT_ID": 66491, "ELEMENT_SET_NO": 999, "REV_AT_EPOCH": 432, "BSTAR": -0.021089963, "MEAN_MOTION_DOT": -0.02012949, "MEAN_MOTION_DDOT": 0}, "tle": {"line1": "1 66491U 25263G   25338.58334491 -.02012949  00000+0 -21090-1 0  9993", "line2": "2 66491  42.9991 173.0998 0001673 259.1964  64.8961 15.66777295  4320"}}, "geometry": {"type": "Point", "coordinates": [132.52451437921297, -30.213541246252326]}}, {"type": "Feature", "properties": {"norad_id": 66492, "name": "STARLINK-35673", "group": "last-30-days", "lat": -29.18123724360529, "lon": 134.37674540950746, "alt_km": 374.0742003585474, "timestamp": "2025-12-04T21:36:14.652188+00:00", "meta": {"OBJECT_NAME": "STARLINK-35673", "OBJECT_ID": "2025-263H", "EPOCH": "2025-12-04T14:00:01.000224", "MEAN_MOTION": 15.66779636, "ECCENTRICITY": 0.00017464, "INCLINATION": 42.9991, "RA_OF_ASC_NODE": 173.095, "ARG_OF_PERICENTER": 258.6068, "MEAN_ANOMALY": 67.3996, "EPHEMERIS_TYPE": 0, "CLASSIFICATION_TYPE": "U", "NORAD_CAT_ID": 66492, "ELEMENT_SET_NO": 999, "REV_AT_EPOCH": 432, "BSTAR": -0.021104557, "MEAN_MOTION_DOT": -0.02014402, "MEAN_MOTION_DDOT": 0}, "tle": {"line1": "1 66492U 25263H   25338.58334491 -.02014402  00000+0 -21105-1 0  9997", "line2": "2 66492  42.9991 173.0950 0001746 258.6068  67.3996 15.66779636  4326"}}, "geometry": {"type": "Point", "coordinates": [134.37674540950746, -29.18123724360529]}}, {"type": "Feature", "properties": {"norad_id": 66493, "name": "STARLINK-35597", "group": "last-30-days", "lat": -28.123429949990573, "lon": 136.19196984098033, "alt_km": 374.0148533609663, "timestamp": "2025-12-04T21:36:14.652199+00:00", "meta": {"OBJECT_NAME": "STARLINK-35597", "OBJECT_ID": "2025-263J", "EPOCH": "2025-12-04T14:00:01.000224", "MEAN_MOTION": 15.6677809, "ECCENTRICITY": 0.00016663, "INCLINATION": 42.999, "RA_OF_ASC_NODE": 173.0901, "ARG_OF_PERICENTER": 261.5518, "MEAN_ANOMALY": 66.375, "EPHEMERIS_TYPE": 0, "CLASSIFICATION_TYPE": "U", "NORAD_CAT_ID": 66493, "ELEMENT_SET_NO": 999, "REV_AT_EPOCH": 432, "BSTAR": -0.021101973, "MEAN_MOTION_DOT": -0.02014008, "MEAN_MOTION_DDOT": 0}, "tle": {"line1": "1 66493U 25263J   25338.58334491 -.02014008  00000+0 -21102-1 0  9997", "line2": "2 66493  42.9990 173.0901 0001666 261.5518  66.3750 15.66778090  4326"}}, "geometry": {"type": "Point", "coordinates": [136.19196984098033, -28.123429949990573]}}, {"type": "Feature", "properties": {"norad_id": 66494, "name": "STARLINK-35689", "group": "last-30-days", "lat": -31.21953672713436, "lon": 130.63304095233906, "alt_km": 374.1042785856307, "timestamp": "2025-12-04T21:36:14.652210+00:00", "meta": {"OBJECT_NAME": "STARLINK-35689", "OBJECT_ID": "2025-263K", "EPOCH": "2025-12-04T14:00:01.000224", "MEAN_MOTION": 15.66774694, "ECCENTRICITY": 0.0001746, "INCLINATION": 42.999, "RA_OF_ASC_NODE": 173.1052, "ARG_OF_PERICENTER": 259.819, "MEAN_ANOMALY": 62.3559, "EPHEMERIS_TYPE": 0, "CLASSIFICATION_TYPE": "U", "NORAD_CAT_ID": 66494, "ELEMENT_SET_NO": 999, "REV_AT_EPOCH": 432, "BSTAR": -0.021030057, "MEAN_MOTION_DOT": -0.020078, "MEAN_MOTION_DDOT": 0}, "tle": {"line1": "1 66494U 25263K   25338.58334491 -.02007800  00000+0 -21030-1 0  9990", "line2": "2 66494  42.9990 173.1052 0001746 259.8190  62.3559 15.66774694  4329"}}, "geometry": {"type": "Point", "coordinates": [130.63304095233906, -31.21953672713436]}}, {"type": "Feature", "properties": {"norad_id": 66495, "name": "STARLINK-35832", "group": "last-30-days", "lat": -27.041880359595666, "lon": 137.97139836740965, "alt_km": 373.9954310124922, "timestamp": "2025-12-04T21:36:14.652219+00:00", "meta": {"OBJECT_NAME": "STARLINK-35832", "OBJECT_ID": "2025-263L", "EPOCH": "2025-12-04T14:00:01.000224", "MEAN_MOTION": 15.66777386, "ECCENTRICITY": 0.00016301, "INCLINATION": 42.9988, "RA_OF_ASC_NODE": 173.0852, "ARG_OF_PERICENTER": 261.4884, "MEAN_ANOMALY": 68.3572, "EPHEMERIS_TYPE": 0, "CLASSIFICATION_TYPE": "U", "NORAD_CAT_ID": 66495, "ELEMENT_SET_NO": 999, "REV_AT_EPOCH": 432, "BSTAR": -0.021108516, "MEAN_MOTION_DOT": -0.02014475, "MEAN_MOTION_DDOT": 0}, "tle": {"line1": "1 66495U 25263L   25338.58334491 -.02014475  00000+0 -21109-1 0  9994", "line2": "2 66495  42.9988 173.0852 0001630 261.4884  68.3572 15.66777386  4327"}}, "geometry": {"type": "Point", "coordinates": [137.97139836740965, -27.041880359595666]}}, {"type": "Feature", "properties": {"norad_id": 66496, "name": "STARLINK-35909", "group": "last-30-days", "lat": -25.93890095738057, "lon": 139.71592630938156, "alt_km": 373.8614845448965, "timestamp": "2025-12-04T21:36:14.652231+00:00", "meta": {"OBJECT_NAME": "STARLINK-35909", "OBJECT_ID": "2025-263M", "EPOCH": "2025-12-04T14:00:01.000224", "MEAN_MOTION": 15.66776437, "ECCENTRICITY": 0.00017593, "INCLINATION": 42.9989, "RA_OF_ASC_NODE": 173.0804, "ARG_OF_PERICENTER": 263.2228, "MEAN_ANOMALY": 68.5385, "EPHEMERIS_TYPE": 0, "CLASSIFICATION_TYPE": "U", "NORAD_CAT_ID": 66496, "ELEMENT_SET_NO": 999, "REV_AT_EPOCH": 432, "BSTAR": -0.021079219, "MEAN_MOTION_DOT": -0.02012058, "MEAN_MOTION_DDOT": 0}, "tle": {"line1": "1 66496U 25263M   25338.58334491 -.02012058  00000+0 -21079-1 0  9996", "line2": "2 66496  42.9989 173.0804 0001759 263.2228  68.5385 15.66776437  4320"}}, "geometry": {"type": "Point", "coordinates": [139.71592630938156, -25.93890095738057]}}, {"type": "Feature", "properties": {"norad_id": 66497, "name": "STARLINK-35899", "group": "last-30-days", "lat": -24.815144966854835, "lon": 141.42732983736872, "alt_km": 373.8917298076567, "timestamp": "2025-12-04T21:36:14.652241+00:00", "meta": {"OBJECT_NAME": "STARLINK-35899", "OBJECT_ID": "2025-263N", "EPOCH": "2025-12-04T14:00:01.000224", "MEAN_MOTION": 15.66776798, "ECCENTRICITY": 0.00017083, "INCLINATION": 42.999, "RA_OF_ASC_NODE": 173.075, "ARG_OF_PERICENTER": 260.7388, "MEAN_ANOMALY": 72.9388, "EPHEMERIS_TYPE": 0, "CLASSIFICATION_TYPE": "U", "NORAD_CAT_ID": 66497, "ELEMENT_SET_NO": 999, "REV_AT_EPOCH": 432, "BSTAR": -0.021079512, "MEAN_MOTION_DOT": -0.02012067, "MEAN_MOTION_DDOT": 0}, "tle": {"line1": "1 66497U 25263N   25338.58334491 -.02012067  00000+0 -21080-1 0  9999", "line2": "2 66497  42.9990 173.0750 0001708 260.7388  72.9388 15.66776798  4328"}}, "geometry": {"type": "Point", "coordinates": [141.42732983736872, -24.815144966854835]}}, {"type": "Feature", "properties": {"norad_id": 66498, "name": "STARLINK-35907", "group": "last-30-days", "lat": -23.671704841874373, "lon": 143.1090403942455, "alt_km": 373.76338439378105, "timestamp": "2025-12-04T21:36:14.652251+00:00", "meta": {"OBJECT_NAME": "STARLINK-35907", "OBJECT_ID": "2025-263P", "EPOCH": "2025-12-04T14:00:01.000224", "MEAN_MOTION": 15.66774895, "ECCENTRICITY": 0.00017382, "INCLINATION": 42.999, "RA_OF_ASC_NODE": 173.0705, "ARG_OF_PERICENTER": 263.8897, "MEAN_ANOMALY": 71.7072, "EPHEMERIS_TYPE": 0, "CLASSIFICATION_TYPE": "U", "NORAD_CAT_ID": 66498, "ELEMENT_SET_NO": 999, "REV_AT_EPOCH": 432, "BSTAR": -0.02106451, "MEAN_MOTION_DOT": -0.02010696, "MEAN_MOTION_DDOT": 0}, "tle": {"line1": "1 66498U 25263P   25338.58334491 -.02010696  00000+0 -21065-1 0  9999", "line2": "2 66498  42.9990 173.0705 0001738 263.8897  71.7072 15.66774895  4324"}}, "geometry": {"type": "Point", "coordinates": [143.1090403942455, -23.671704841874373]}}]}